NORAD_CAT_ID,OBJECT_NAME,OBJECT_TYPE,EPOCH,MEAN_MOTION,ECCENTRICITY,INCLINATION,RA_OF_ASC_NODE,ARG_OF_PERICENTER,MEAN_ANOMALY,BSTAR,MEAN_MOTION_DOT,MEAN_MOTION_DDOT,TLE_LINE0,TLE_LINE1,TLE_LINE2,SEMIMAJOR_AXIS,PERIOD,APOGEE,PERIGEE,DECAYED
52611.0,STARLINK-3980,PAYLOAD,2024-02-27 20:24:27,15.08834819,0.000168,53.2194,9.879,87.9237,272.1947,2.646e-05,1.33e-06,0.0,0 STARLINK-3980,1 52611U 22052P   24058.85031365  .00000133  00000-0  26460-4 0  9995,2 52611  53.2194   9.8790 0001680  87.9237 272.1947 15.08834819 98944,6917.896,95.438,540.923,538.599,0.0
52611.0,STARLINK-3980,PAYLOAD,2024-02-28 13:53:41,15.08842377,0.0001265,53.2177,6.6062,105.1281,254.9851,2.946e-06,-2.41e-06,0.0,0 STARLINK-3980,1 52611U 22052P   24059.57894699 -.00000241  00000-0  29460-5 0  9997,2 52611  53.2177   6.6062 0001265 105.1281 254.9851 15.08842377 99056,6917.873,95.437,540.613,538.863,0.0
52611.0,STARLINK-3980,PAYLOAD,2024-02-29 13:44:28,15.08843155,0.0001324,53.2183,2.144,110.4867,249.6268,4.9644e-05,5.02e-06,0.0,0 STARLINK-3980,1 52611U 22052P   24060.57254744  .00000502  00000-0  49644-4 0  9994,2 52611  53.2183   2.1440 0001324 110.4867 249.6268 15.08843155 99204,6917.871,95.437,540.652,538.82,0.0
52611.0,STARLINK-3980,PAYLOAD,2024-02-29 20:06:01,15.08830595,0.0001252,53.2194,0.9557,104.0197,256.0935,0.00010096,1.319e-05,0.0,0 STARLINK-3980,1 52611U 22052P   24060.83751512  .00001319  00000-0  10096-3 0  9993,2 52611  53.2194   0.9557 0001252 104.0197 256.0935 15.08830595 99618,6917.909,95.438,540.64,538.908,0.0
52611.0,STARLINK-3980,PAYLOAD,2024-03-01 02:27:33,15.08844654,0.000153,53.2177,359.7681,98.2412,261.8754,9.9649e-05,1.298e-05,0.0,0 STARLINK-3980,1 52611U 22052P   24061.10246709  .00001298  00000-0  99649-4 0  9999,2 52611  53.2177 359.7681 0001530  98.2412 261.8754 15.08844654 99653,6917.866,95.437,540.79,538.673,0.0
52611.0,STARLINK-3980,PAYLOAD,2024-03-02 02:18:19,15.08850707,0.0001463,53.2193,355.3084,92.0224,268.0936,1.8798e-05,1.1e-07,0.0,0 STARLINK-3980,1 52611U 22052P   24062.09606434  .00000011  00000-0  18798-4 0  9991,2 52611  53.2193 355.3084 0001463  92.0224 268.0936 15.08850707 99431,6917.848,95.437,540.725,538.701,0.0
52611.0,STARLINK-3980,PAYLOAD,2024-03-03 02:09:08,15.08818508,0.000131,53.2191,350.8487,95.3455,264.7687,-0.0001743,-3.059e-05,0.0,0 STARLINK-3980,1 52611U 22052P   24063.08968493 -.00003059  00000-0 -17430-3 0  9995,2 52611  53.2191 350.8487 0001310  95.3455 264.7687 15.08818508 99955,6917.946,95.439,540.717,538.905,0.0
52611.0,STARLINK-3980,PAYLOAD,2024-03-03 19:38:22,15.0883447,0.0001503,53.2198,347.576,97.4232,262.6931,-0.00010033,-1.884e-05,0.0,0 STARLINK-3980,1 52611U 22052P   24063.81831886 -.00001884  00000-0 -10033-3 0  9997,2 52611  53.2198 347.5760 0001503  97.4232 262.6931 15.08834470100069,6917.897,95.438,540.802,538.723,0.0
52611.0,STARLINK-3980,PAYLOAD,2024-03-04 03:35:16,15.08862143,0.0001305,53.2188,346.0894,94.3167,265.7974,0.00013908,1.928e-05,0.0,0 STARLINK-3980,1 52611U 22052P   24064.14949411  .00001928  00000-0  13908-3 0  9999,2 52611  53.2188 346.0894 0001305  94.3167 265.7974 15.08862143100118,6917.813,95.436,540.58,538.775,0.0
52611.0,STARLINK-3980,PAYLOAD,2024-03-04 11:32:12,15.08852179,0.0001352,53.2191,344.5986,84.1671,275.9475,0.00011281,1.508e-05,0.0,0 STARLINK-3980,1 52611U 22052P   24064.48069778  .00001508  00000-0  11281-3 0  9991,2 52611  53.2191 344.5986 0001352  84.1671 275.9475 15.08852179100168,6917.843,95.437,540.643,538.773,0.0
52611.0,STARLINK-3980,PAYLOAD,2024-03-04 22:39:55,15.0882174,0.0001866,53.2195,342.5245,86.8478,273.2727,0.00020802,3.022e-05,0.0,0 STARLINK-3980,1 52611U 22052P   24064.94439490  .00003022  00000-0  20802-3 0  9996,2 52611  53.2195 342.5245 0001866  86.8478 273.2727 15.08821740 99867,6917.936,95.439,541.092,538.51,0.0
52611.0,STARLINK-3980,PAYLOAD,2024-03-05 03:26:04,15.08833109,0.0001202,53.2181,341.6285,93.2933,266.8197,0.00025811,3.822e-05,0.0,0 STARLINK-3980,1 52611U 22052P   24065.14310604  .00003822  00000-0  25811-3 0  9997,2 52611  53.2181 341.6285 0001202  93.2933 266.8197 15.08833109100266,6917.901,95.438,540.598,538.935,0.0
52611.0,STARLINK-3980,PAYLOAD,2024-03-05 05:01:27,15.08835734,0.0001275,53.2183,341.3299,93.2238,266.89,0.00023517,3.456e-05,0.0,0 STARLINK-3980,1 52611U 22052P   24065.20934578  .00003456  00000-0  23517-3 0  9990,2 52611  53.2183 341.3299 0001275  93.2238 266.8900 15.08835734 99904,6917.893,95.438,540.64,538.876,0.0
52611.0,STARLINK-3980,PAYLOAD,2024-03-05 11:23:00,15.08829082,8.89e-05,53.2189,340.1386,77.2668,282.8423,9.3616e-05,1.202e-05,0.0,0 STARLINK-3980,1 52611U 22052P   24065.47431471  .00001202  00000-0  93616-4 0  9998,2 52611  53.2189 340.1386 0000889  77.2668 282.8423 15.08829082100318,6917.914,95.438,540.394,539.164,0.0
52611.0,STARLINK-3980,PAYLOAD,2024-03-06 03:16:51,15.08847071,0.0001588,53.2194,337.1652,92.2717,267.8457,-9.3683e-06,-4.37e-06,0.0,0 STARLINK-3980,1 52611U 22052P   24066.13671118 -.00000437  00000-0 -93683-5 0  9992,2 52611  53.2194 337.1652 0001588  92.2717 267.8457 15.08847071100414,6917.859,95.437,540.822,538.625,0.0
52611.0,STARLINK-3980,PAYLOAD,2024-03-07 03:07:39,15.08842038,0.0001655,53.2197,332.7058,102.1949,257.9228,2.6559e-05,1.35e-06,0.0,0 STARLINK-3980,1 52611U 22052P   24067.13031457  .00000135  00000-0  26559-4 0  9999,2 52611  53.2197 332.7058 0001655 102.1949 257.9228 15.08842038100561,6917.874,95.437,540.884,538.594,0.0
52611.0,STARLINK-3980,PAYLOAD,2024-03-07 11:04:34,15.08848594,0.0001501,53.2192,331.2169,98.1002,262.0161,5.6331e-05,6.09e-06,0.0,0 STARLINK-3980,1 52611U 22052P   24067.46150894  .00000609  00000-0  56331-4 0  9999,2 52611  53.2192 331.2169 0001501  98.1002 262.0161 15.08848594100248,6917.854,95.437,540.757,538.681,0.0
52611.0,STARLINK-3980,PAYLOAD,2024-03-07 23:47:40,15.08838643,0.0001723,53.2188,328.8406,93.8661,266.2528,3.0395e-06,-2.4e-06,0.0,0 STARLINK-3980,1 52611U 22052P   24067.99143998 -.00000240  00000-0  30395-5 0  9999,2 52611  53.2188 328.8406 0001723  93.8661 266.2528 15.08838643100694,6917.885,95.438,540.941,538.558,0.0
52611.0,STARLINK-3980,PAYLOAD,2024-03-08 10:55:21,15.08844082,0.0001785,53.2197,326.7579,99.5813,260.5381,7.5758e-05,9.18e-06,0.0,0 STARLINK-3980,1 52611U 22052P   24068.45511436  .00000918  00000-0  75758-4 0  9999,2 52611  53.2197 326.7579 0001785  99.5813 260.5381 15.08844082100397,6917.868,95.437,540.968,538.498,0.0
52611.0,STARLINK-3980,PAYLOAD,2024-03-09 02:49:13,15.08839892,0.0001556,53.2183,323.7852,97.2181,262.8988,2.8259e-06,-2.43e-06,0.0,0 STARLINK-3980,1 52611U 22052P   24069.11752127 -.00000243  00000-0  28259-5 0  9994,2 52611  53.2183 323.7852 0001556  97.2181 262.8988 15.08839892100865,6917.881,95.438,540.822,538.669,0.0
52611.0,STARLINK-3980,PAYLOAD,2024-03-10 09:01:32,15.08851106,0.0001581,53.218,318.1373,91.2967,268.8206,9.8849e-05,1.286e-05,0.0,0 STARLINK-3980,1 52611U 22052P   24070.37606971  .00001286  00000-0  98849-4 0  9997,2 52611  53.2180 318.1373 0001581  91.2967 268.8206 15.08851106101055,6917.846,95.437,540.805,538.618,0.0
52611.0,STARLINK-3980,PAYLOAD,2024-03-10 20:09:16,15.08819909,0.0001342,53.2188,316.0559,95.3301,264.7845,-2.8072e-06,-3.32e-06,0.0,0 STARLINK-3980,1 52611U 22052P   24070.83977506 -.00000332  00000-0 -28072-5 0  9998,2 52611  53.2188 316.0559 0001342  95.3301 264.7845 15.08819909101125,6917.942,95.439,540.735,538.878,0.0
52611.0,STARLINK-3980,PAYLOAD,2024-03-10 23:20:02,15.08824162,0.0001208,53.2169,315.4617,87.4842,272.6289,2.9691e-05,1.85e-06,0.0,0 STARLINK-3980,1 52611U 22052P   24070.97225247  .00000185  00000-0  29691-4 0  9992,2 52611  53.2169 315.4617 0001208  87.4842 272.6289 15.08824162100772,6917.929,95.439,540.629,538.958,0.0
52611.0,STARLINK-3980,PAYLOAD,2024-03-11 02:30:48,15.0883087,0.0001281,53.2158,314.8658,89.207,270.9068,-2.7327e-05,-7.23e-06,0.0,0 STARLINK-3980,1 52611U 22052P   24071.10473066 -.00000723  00000-0 -27327-4 0  9996,2 52611  53.2158 314.8658 0001281  89.2070 270.9068 15.08830870101165,6917.908,95.438,540.659,538.887,0.0
52611.0,STARLINK-3980,PAYLOAD,2024-03-11 08:52:20,15.08837913,0.0001401,53.2171,313.6777,95.2557,264.8595,7.8554e-06,-1.63e-06,0.0,0 STARLINK-3980,1 52611U 22052P   24071.36968581 -.00000163  00000-0  78554-5 0  9991,2 52611  53.2171 313.6777 0001401  95.2557 264.8595 15.08837913101207,6917.887,95.438,540.721,538.783,0.0
52611.0,STARLINK-3980,PAYLOAD,2024-03-12 08:43:07,15.08848083,0.000108,53.217,309.2159,79.4628,280.6486,-5.9307e-06,-3.82e-06,0.0,0 STARLINK-3980,1 52611U 22052P   24072.36327876 -.00000382  00000-0 -59307-5 0  9997,2 52611  53.2170 309.2159 0001080  79.4628 280.6486 15.08848083101358,6917.856,95.437,540.468,538.974,0.0
52611.0,STARLINK-3980,PAYLOAD,2024-03-12 15:04:40,15.08829423,0.0001299,53.2175,308.0276,86.2718,273.8422,0.00018522,2.66e-05,0.0,0 STARLINK-3980,1 52611U 22052P   24072.62824633  .00002660  00000-0  18522-3 0  9990,2 52611  53.2175 308.0276 0001299  86.2718 273.8422 15.08829423101393,6917.913,95.438,540.676,538.879,0.0
52611.0,STARLINK-3980,PAYLOAD,2024-03-13 08:33:54,15.08842987,0.0001359,53.2175,304.7566,81.9089,278.2057,0.00013254,1.822e-05,0.0,0 STARLINK-3980,1 52611U 22052P   24073.35688162  .00001822  00000-0  13254-3 0  9992,2 52611  53.2175 304.7566 0001359  81.9089 278.2057 15.08842987101504,6917.871,95.437,540.676,538.796,0.0
52611.0,STARLINK-3980,PAYLOAD,2024-03-13 21:17:00,15.08834881,0.0001075,53.2121,302.3749,82.0003,278.1111,-2.3538e-05,-6.62e-06,0.0,0 STARLINK-3980,1 52611U 22052P   24073.88681021 -.00000662  00000-0 -23538-4 0  9997,2 52611  53.2121 302.3749 0001075  82.0003 278.1111 15.08834881101587,6917.896,95.438,540.505,539.017,0.0
52611.0,STARLINK-3980,PAYLOAD,2024-03-13 22:52:22,15.08850328,0.0001518,53.2184,302.0791,86.4762,273.6404,0.00015756,2.221e-05,0.0,0 STARLINK-3980,1 52611U 22052P   24073.95303693  .00002221  00000-0  15756-3 0  9994,2 52611  53.2184 302.0791 0001518  86.4762 273.6404 15.08850328101222,6917.849,95.437,540.764,538.664,0.0
